[{"OBJECT_NAME":"STARLINK-3910","OBJECT_ID":"2022-051BC","EPOCH":"2026-03-09T12:49:30.281664","MEAN_MOTION":15.08841511,"ECCENTRICITY":0.00011961,"INCLINATION":53.2169,"RA_OF_ASC_NODE":119.8187,"ARG_OF_PERICENTER":94.3692,"MEAN_ANOMALY":265.7437,"EPHEMERIS_TYPE":0,"CLASSIFICATION_TYPE":"U","NORAD_CAT_ID":52586,"ELEMENT_SET_NO":999,"REV_AT_EPOCH":21156,"BSTAR":9.4620466e-5,"MEAN_MOTION_DOT":1.218e-5,"MEAN_MOTION_DDOT":0},{"OBJECT_NAME":"JILIN-01 KUANFU 02B 1","OBJECT_ID":"2024-169A","EPOCH":"2026-03-09T22:23:47.298048","MEAN_MOTION":15.0926333,"ECCENTRICITY":0.00080135,"INCLINATION":97.5562,"RA_OF_ASC_NODE":159.9206,"ARG_OF_PERICENTER":20.9587,"MEAN_ANOMALY":339.1969,"EPHEMERIS_TYPE":0,"CLASSIFICATION_TYPE":"U","NORAD_CAT_ID":61189,"ELEMENT_SET_NO":999,"REV_AT_EPOCH":8085,"BSTAR":0.00041363535,"MEAN_MOTION_DOT":6.529e-5,"MEAN_MOTION_DDOT":0}]
